{"type":"FeatureCollection","properties":{"region":"EC","generatedAt":"2026-08-04T16:32:00.353Z","attribution":"© OpenStreetMap contributors","license":"ODbL"},"features":[{"type":"Feature","properties":{"routeId":"ec-berlin","source":"OpenStreetMap","license":"ODbL","stations":18},"geometry":{"type":"LineString","coordinates":[[27.9075946,-33.0166845],[27.9069223,-33.0147742],[27.9067145,-33.0142035],[27.9065956,-33.0138696],[27.90646,-33.0135001],[27.906288,-33.0130539],[27.9062365,-33.0129225],[27.9061814,-33.0128045],[27.9060976,-33.0126398],[27.9060201,-33.0125018],[27.9059415,-33.0123731],[27.9058337,-33.012214],[27.9057742,-33.0121198],[27.9057008,-33.0120161],[27.9056062,-33.0118954],[27.9054759,-33.0117455],[27.9053801,-33.0116308],[27.9052895,-33.0115369],[27.9051688,-33.011416],[27.9046455,-33.0109456],[27.9043392,-33.0105963],[27.9042303,-33.0104987],[27.903807,-33.0101226],[27.903516,-33.0098841],[27.903807,-33.0101226],[27.9042303,-33.0104987],[27.9043392,-33.0105963],[27.9046455,-33.0109456],[27.9037774,-33.0101436],[27.9034853,-33.0099054],[27.9025976,-33.0092554],[27.9018186,-33.0087088],[27.9012947,-33.0083328],[27.9008831,-33.0080152],[27.8996107,-33.0071314],[27.8987153,-33.0064948],[27.8982413,-33.0060754],[27.8978595,-33.0056562],[27.8971535,-33.0048498],[27.896741,-33.0044167],[27.8962807,-33.0040224],[27.8956585,-33.0034988],[27.8932158,-33.0015276],[27.8931361,-33.0014674],[27.8929355,-33.0013106],[27.8915643,-33.0001922],[27.8913164,-32.9999607],[27.8910105,-32.9996426],[27.890664,-32.9991679],[27.8902814,-32.9986321],[27.8890803,-32.9969332],[27.8886734,-32.9963104],[27.8883283,-32.995689],[27.8881853,-32.9952744],[27.8881058,-32.9949822],[27.8880675,-32.9946912],[27.888041,-32.9943747],[27.888058,-32.9939855],[27.8881113,-32.9936151],[27.8882332,-32.9931563],[27.8883681,-32.9928506],[27.8885525,-32.9925267],[27.8886515,-32.9923645],[27.8887533,-32.9922114],[27.8889003,-32.9920227],[27.8890426,-32.9918567],[27.8894225,-32.9914918],[27.8914914,-32.9893914],[27.8927567,-32.988096],[27.8932324,-32.9876059],[27.8943109,-32.9864971],[27.8949412,-32.9858579],[27.8956618,-32.9851237],[27.8959245,-32.9848612],[27.8960334,-32.9847567],[27.8964937,-32.984331],[27.8962511,-32.9845895],[27.8959238,-32.9849214],[27.8952509,-32.9855974],[27.8949772,-32.9858786],[27.8943443,-32.9865204],[27.8949772,-32.9858786],[27.8952509,-32.9855974],[27.8959238,-32.9849214],[27.8962511,-32.9845895],[27.8964937,-32.984331],[27.8960334,-32.9847567],[27.8964201,-32.9843439],[27.896788,-32.9839779],[27.8968919,-32.9838741],[27.8973259,-32.9834135],[27.8977143,-32.9827852],[27.8981188,-32.9819723],[27.8984597,-32.9812698],[27.8985775,-32.9808469],[27.8987936,-32.9801406],[27.8989202,-32.9796192],[27.8989756,-32.97936],[27.8990145,-32.9791024],[27.8990293,-32.9788521],[27.8990259,-32.9785896],[27.899004,-32.9783222],[27.8989675,-32.9780608],[27.8989019,-32.977594],[27.8988773,-32.9774011],[27.8988418,-32.9772174],[27.8987998,-32.9770499],[27.8987396,-32.9768823],[27.8986306,-32.9766372],[27.8984816,-32.9763891],[27.8981973,-32.9759321],[27.8977489,-32.9752843],[27.8975883,-32.975085],[27.8973839,-32.9748705],[27.897227,-32.9747377],[27.8970446,-32.974605],[27.8968802,-32.9744982],[27.8966939,-32.9743944],[27.8965293,-32.9743118],[27.8963464,-32.9742383],[27.8961591,-32.9741679],[27.8959463,-32.9741097],[27.8957906,-32.9740674],[27.8957215,-32.9740566],[27.8955985,-32.9740374],[27.8953688,-32.9740128],[27.8951136,-32.9740036],[27.8949158,-32.9740009],[27.8947107,-32.9740135],[27.8943068,-32.9740593],[27.8932224,-32.9742149],[27.8925517,-32.9743039],[27.8922497,-32.9743337],[27.8919476,-32.9743421],[27.8916653,-32.974336],[27.8913829,-32.9743146],[27.8910655,-32.9742639],[27.8907066,-32.9742024],[27.8903088,-32.9740869],[27.890119,-32.9740257],[27.8898653,-32.9739447],[27.8892434,-32.9737142],[27.8890101,-32.9736419],[27.8891882,-32.9736748],[27.8893207,-32.9737018],[27.8894705,-32.9737201],[27.8896469,-32.9737316],[27.889781,-32.9737308],[27.8899221,-32.973715],[27.8900385,-32.9736945],[27.8901263,-32.9736728],[27.8902564,-32.9736315],[27.8903513,-32.9735958],[27.8904703,-32.9735398],[27.8907448,-32.9733929],[27.8908175,-32.9733528],[27.8910626,-32.9732202],[27.8913595,-32.9730304],[27.8914161,-32.9729885],[27.8915549,-32.9728684],[27.8914161,-32.9729885],[27.8913595,-32.9730304],[27.8910626,-32.9732202],[27.8908175,-32.9733528],[27.8907448,-32.9733929],[27.8904596,-32.9735254],[27.8903205,-32.9735752],[27.8902138,-32.9736107],[27.8901314,-32.9736337],[27.8900569,-32.9736512],[27.889953,-32.9736709],[27.8898705,-32.9736818],[27.8897488,-32.9736945],[27.8896372,-32.9736914],[27.8894454,-32.9736807],[27.8893307,-32.9736644],[27.8891701,-32.9736459],[27.8890244,-32.9736082],[27.8888828,-32.9735637],[27.8887079,-32.9734982],[27.8882614,-32.9733245],[27.8880061,-32.9732184],[27.8877986,-32.9731269],[27.8876787,-32.973077],[27.8874512,-32.9729981],[27.887361,-32.9729703],[27.8865876,-32.9727284],[27.8864259,-32.9726785],[27.8862636,-32.9726342],[27.8860578,-32.972583],[27.8858446,-32.972535],[27.8843646,-32.9721961],[27.8834712,-32.9719919],[27.8824221,-32.9717533],[27.8819006,-32.9716396],[27.8816309,-32.9715842],[27.881418,-32.9715447],[27.8811138,-32.9714977],[27.8807874,-32.9714558],[27.8805021,-32.9714254],[27.8802334,-32.971407],[27.8800378,-32.9713961],[27.8799545,-32.9713956],[27.8796934,-32.9713792],[27.8790718,-32.971314],[27.8787429,-32.9712767],[27.8786645,-32.9712673],[27.8786316,-32.9712644],[27.8777569,-32.9711677],[27.8768681,-32.9710819],[27.8777569,-32.9711677],[27.8775948,-32.9711583],[27.877523,-32.9711577],[27.8768858,-32.9711571],[27.8766745,-32.9711566],[27.8765901,-32.9711533],[27.8764508,-32.9711433],[27.8760698,-32.9711012],[27.8757954,-32.9710653],[27.8755312,-32.9710183],[27.8752591,-32.9709661],[27.8749528,-32.9709019],[27.8746345,-32.9708388],[27.8744334,-32.9708063],[27.8741818,-32.9707712],[27.8739554,-32.9707423],[27.8737145,-32.9707244],[27.8734618,-32.9707104],[27.8731049,-32.9707004],[27.8728718,-32.9706968],[27.8716873,-32.9706986],[27.8687998,-32.9707084],[27.8669183,-32.9707173],[27.8665443,-32.970713],[27.8662051,-32.9706882],[27.8658825,-32.9706514],[27.8656897,-32.9706227],[27.8653159,-32.970569],[27.8650206,-32.970505],[27.8646992,-32.9704024],[27.864266,-32.9702632],[27.8638373,-32.9700815],[27.8636555,-32.9700037],[27.8632842,-32.9698069],[27.8624088,-32.9692745],[27.8614782,-32.9686698],[27.8610302,-32.9684109],[27.8605139,-32.9681634],[27.8600138,-32.9679512],[27.8594584,-32.9677651],[27.8589071,-32.9676315],[27.8582645,-32.9675408],[27.8575752,-32.9674861],[27.8559827,-32.9673946],[27.8543281,-32.9672894],[27.8536771,-32.9672794],[27.8531988,-32.9673087],[27.8526874,-32.9673633],[27.8522815,-32.9674286],[27.8518022,-32.967564],[27.8511185,-32.9677797],[27.8497737,-32.9683702],[27.8491221,-32.9685778],[27.8485571,-32.9686854],[27.8479772,-32.9687313],[27.8474186,-32.9687473],[27.8467417,-32.96869],[27.8462801,-32.9686042],[27.8457408,-32.9684495],[27.845188,-32.9682414],[27.8421961,-32.966984],[27.8413385,-32.9666525],[27.8384906,-32.9654241],[27.8371383,-32.9649496],[27.8361055,-32.9646814],[27.8353595,-32.9645784],[27.8347785,-32.9645723],[27.8340178,-32.9646308],[27.8334203,-32.9647372],[27.8329912,-32.9648337],[27.832662,-32.9649364],[27.832536,-32.9649758],[27.832371,-32.9650371],[27.8321692,-32.9651153],[27.8319962,-32.9651851],[27.8315883,-32.9653793],[27.8306162,-32.9659075],[27.8301682,-32.9661488],[27.8299537,-32.966248],[27.8297867,-32.966339],[27.8295024,-32.9664599],[27.8291121,-32.9666051],[27.8288796,-32.966676],[27.8285401,-32.9667744],[27.8282813,-32.9668374],[27.8280433,-32.9668892],[27.8276912,-32.9669499],[27.8271937,-32.9670321],[27.826611,-32.9671294],[27.8262743,-32.967184],[27.8259317,-32.9672335],[27.8256884,-32.9672603],[27.8252059,-32.9672894],[27.8247649,-32.9673212],[27.8245329,-32.9673212],[27.824148,-32.9673111],[27.8238235,-32.9672881],[27.8234594,-32.9672509],[27.82311,-32.9671964],[27.8224314,-32.9670793],[27.8218178,-32.9669702],[27.8210514,-32.9668341],[27.8206014,-32.9667527],[27.8204888,-32.966735],[27.8199231,-32.9666798],[27.8195453,-32.9666703],[27.8193019,-32.9666715],[27.8190914,-32.9666883],[27.8187581,-32.966717],[27.8185838,-32.9667339],[27.8182907,-32.9667694],[27.8180467,-32.9668132],[27.8174479,-32.9669325],[27.8172178,-32.9669828],[27.8169477,-32.9670403],[27.8166579,-32.9671013],[27.8155623,-32.9673263],[27.8150573,-32.9674349],[27.81459,-32.9675305],[27.8143499,-32.9675738],[27.8140421,-32.967616],[27.8138866,-32.9676374],[27.8134494,-32.9676734],[27.8130376,-32.9676835],[27.8127936,-32.9676802],[27.8124338,-32.9676647],[27.8122893,-32.9676537],[27.8118521,-32.967598],[27.8093469,-32.9672543],[27.8084356,-32.9671148],[27.8056683,-32.9667075],[27.8045075,-32.9665404],[27.8037907,-32.9664307],[27.8039885,-32.9664521],[27.8041092,-32.9664594],[27.8043097,-32.9664757],[27.8039617,-32.9664234],[27.8037364,-32.9663727],[27.8035533,-32.96633],[27.8032503,-32.9662647],[27.8028989,-32.9661888],[27.8025545,-32.9661161],[27.802281,-32.9660612],[27.8019972,-32.9660117],[27.8009152,-32.9658565],[27.7981666,-32.9654571],[27.7972232,-32.9653148],[27.7967781,-32.9652504],[27.796367,-32.9651767],[27.7958507,-32.9650793],[27.7955087,-32.9650163],[27.795203,-32.964955],[27.7948107,-32.9648498],[27.7945069,-32.9647682],[27.7940724,-32.9646484],[27.793493,-32.9644942],[27.7926193,-32.9642619],[27.790267,-32.9636385],[27.7899056,-32.9635378],[27.7896997,-32.9634737],[27.7892518,-32.963319],[27.7888763,-32.9631704],[27.7884351,-32.9629668],[27.7873769,-32.9624615],[27.7865508,-32.9620733],[27.7860466,-32.9618123],[27.7857569,-32.9616401],[27.7854095,-32.9613971],[27.7850944,-32.961145],[27.7847564,-32.9608378],[27.7844171,-32.9605104],[27.783587,-32.9596687],[27.7830411,-32.9591139],[27.7828601,-32.9589345],[27.7826294,-32.958679],[27.7824544,-32.9584753],[27.7822707,-32.9582306],[27.7821292,-32.958023],[27.7820078,-32.9578232],[27.7819072,-32.9576393],[27.7818174,-32.9574603],[27.7817322,-32.9572707],[27.7816705,-32.9571126],[27.7816015,-32.956923],[27.7815297,-32.9566794],[27.781468,-32.9564543],[27.7814251,-32.9562557],[27.7813856,-32.9560278],[27.7813487,-32.9557392],[27.7812937,-32.9552486],[27.781236,-32.9547495],[27.7812005,-32.9544119],[27.7811448,-32.9539224],[27.7810858,-32.9534385],[27.781055,-32.9531431],[27.7810188,-32.9527745],[27.7810054,-32.9524999],[27.7810007,-32.9523019],[27.781008,-32.9520402],[27.7810235,-32.9518444],[27.781057,-32.9515946],[27.7811224,-32.9512654],[27.7811596,-32.9511332],[27.7811871,-32.9510201],[27.7812571,-32.9507925],[27.7813212,-32.950606],[27.7814154,-32.9503972],[27.7814727,-32.9502734],[27.7815505,-32.9501192],[27.7816498,-32.9499442],[27.7817376,-32.9497946],[27.7818214,-32.9496657],[27.7819502,-32.9494688],[27.7820903,-32.9493],[27.7822278,-32.949134],[27.782325,-32.9490158],[27.782433,-32.9489089],[27.7825449,-32.9487946],[27.7827488,-32.9486067],[27.7829761,-32.9484221],[27.7832195,-32.9482235],[27.7837305,-32.9478369],[27.7846049,-32.9471516],[27.7847484,-32.9470356],[27.7848798,-32.9469141],[27.7850609,-32.9467351],[27.7852446,-32.9465607],[27.7854109,-32.9463818],[27.785612,-32.9461601],[27.785777,-32.9459485],[27.7859245,-32.9457571],[27.7861163,-32.9454606],[27.7863456,-32.945092],[27.7865696,-32.9446542],[27.786705,-32.9443458],[27.7867902,-32.9441281],[27.786866,-32.943921],[27.7869277,-32.9436739],[27.7869692,-32.9435198],[27.7870309,-32.9432789],[27.7870658,-32.9430955],[27.7871047,-32.9428985],[27.7871624,-32.9425845],[27.7872656,-32.9420026],[27.7874239,-32.9410955],[27.7875385,-32.9404359],[27.7875929,-32.9400983],[27.7876204,-32.9399143],[27.7876458,-32.9396593],[27.7876545,-32.939459],[27.7876539,-32.9392547],[27.7876458,-32.9390212],[27.7876291,-32.9388293],[27.7876036,-32.9386188],[27.7875701,-32.9384168],[27.7875258,-32.9381939],[27.7874701,-32.9379834],[27.7874004,-32.9377611],[27.7873206,-32.937549],[27.7872334,-32.9373357],[27.7871376,-32.9371359],[27.787035,-32.9369378],[27.7868807,-32.9366857],[27.7867278,-32.9364521],[27.7865374,-32.9361696],[27.7861337,-32.9355815],[27.7858494,-32.9351566],[27.7857281,-32.9349821],[27.7856047,-32.9348088],[27.7855155,-32.9346884],[27.7854089,-32.9345471],[27.7852385,-32.9343467],[27.7850897,-32.9341818],[27.7848858,-32.9339764],[27.7846961,-32.9337963],[27.7843112,-32.9334896],[27.7837942,-32.9331125],[27.7832483,-32.9327175],[27.7825349,-32.9322104],[27.7819099,-32.931759],[27.7812675,-32.9312936],[27.7804568,-32.9307043],[27.7796059,-32.9300779],[27.7791734,-32.9297672],[27.7789219,-32.9295899],[27.778755,-32.9294762],[27.7785672,-32.9293547],[27.7783902,-32.9292466],[27.7782105,-32.9291515],[27.7780335,-32.9290597],[27.7777894,-32.9289427],[27.7775379,-32.9288346],[27.7773817,-32.9287749],[27.7771738,-32.9286984],[27.7769673,-32.9286331],[27.7767648,-32.9285757],[27.7764308,-32.928489],[27.7761787,-32.9284417],[27.7759467,-32.9284035],[27.7757107,-32.9283663],[27.7753915,-32.9283303],[27.774957,-32.9282909],[27.7743615,-32.9282436],[27.7739458,-32.9282042],[27.7736025,-32.9281536],[27.7732967,-32.9280973],[27.7730338,-32.9280354],[27.772783,-32.9279712],[27.7725551,-32.9279026],[27.7723029,-32.927817],[27.7720468,-32.9277258],[27.7717088,-32.9275829],[27.7713615,-32.9274185],[27.7704079,-32.9269649],[27.7693304,-32.9264397],[27.7683628,-32.9259748],[27.7673603,-32.9254959],[27.7665871,-32.9251272],[27.7660514,-32.9248705],[27.765757,-32.9247293],[27.7655196,-32.9246206],[27.7652031,-32.9244867],[27.7648062,-32.9243493],[27.7641718,-32.9241529],[27.7631921,-32.9238709],[27.7626134,-32.9237004],[27.7623378,-32.9236418],[27.7621032,-32.9235833],[27.7619576,-32.9235416],[27.7613495,-32.9233615],[27.7608479,-32.9232129],[27.760518,-32.9231144],[27.7599929,-32.9229394],[27.7594753,-32.9227379],[27.7591413,-32.9226022],[27.7579991,-32.922117],[27.7560745,-32.9212936],[27.7544615,-32.9206001],[27.7543207,-32.9205404],[27.7534428,-32.9201718],[27.7527744,-32.9198723],[27.7524657,-32.9197176],[27.7522581,-32.9196128],[27.7517373,-32.9193043],[27.7514568,-32.919122],[27.7504925,-32.9184476],[27.749938,-32.9180581],[27.74959,-32.9178177],[27.7493311,-32.9176455],[27.7490743,-32.9174851],[27.748896,-32.9173826],[27.7486163,-32.9172368],[27.748379,-32.9171271],[27.7480859,-32.9170094],[27.747864,-32.9169255],[27.7475555,-32.9168259],[27.7473363,-32.9167634],[27.747001,-32.9166835],[27.74683,-32.9166396],[27.746547,-32.9165884],[27.7463358,-32.9165625],[27.7460723,-32.9165338],[27.7458751,-32.9165174],[27.7456713,-32.9165062],[27.7454359,-32.9165022],[27.7452924,-32.9165011],[27.7450403,-32.9165096],[27.7447902,-32.9165253],[27.7445816,-32.9165433],[27.744351,-32.9165675],[27.7439144,-32.9166368],[27.743439,-32.9167105],[27.742814,-32.9168135],[27.7427195,-32.9168265],[27.7424218,-32.9168653],[27.7421287,-32.9168721],[27.7418065,-32.9168821],[27.7415246,-32.9168839],[27.7412465,-32.9168747],[27.7409063,-32.9168602],[27.7403404,-32.9168304],[27.7397959,-32.916791],[27.7394371,-32.9167685],[27.7390348,-32.9167477],[27.7387646,-32.916733],[27.7385332,-32.916728],[27.7383502,-32.9167291],[27.7381685,-32.9167325],[27.7379888,-32.9167403],[27.7377172,-32.9167634],[27.737567,-32.9167758],[27.7373564,-32.9168023],[27.7371009,-32.9168422],[27.7369125,-32.9168777],[27.7366792,-32.9169295],[27.736482,-32.9169801],[27.7362996,-32.9170297],[27.7360817,-32.9170967],[27.7357236,-32.9172239],[27.7354641,-32.9173235],[27.734756,-32.9175926],[27.7340472,-32.9178639],[27.7332982,-32.9181538],[27.732401,-32.9185],[27.731758,-32.9187448],[27.7312329,-32.9189435],[27.7302231,-32.9193297],[27.7297215,-32.9195216],[27.7291026,-32.9197574],[27.728768,-32.9198762],[27.7284086,-32.9199939],[27.7281068,-32.9200749],[27.7278011,-32.9201475],[27.7275804,-32.9201897],[27.727154,-32.9202562],[27.7268784,-32.9202832],[27.7265719,-32.9203046],[27.7262923,-32.9203181],[27.7258343,-32.9203485],[27.725086,-32.9203952],[27.7242518,-32.9204447],[27.7239695,-32.9204633],[27.7235739,-32.9204903],[27.7227283,-32.9205517],[27.7222791,-32.9205748],[27.7217379,-32.9206108],[27.7210291,-32.9206547],[27.7203009,-32.9207014],[27.7198121,-32.920725],[27.7194761,-32.920738],[27.7192448,-32.9207414],[27.718939,-32.9207391],[27.7186963,-32.920729],[27.718365,-32.9207087],[27.7181404,-32.9206868],[27.7179057,-32.920662],[27.7176824,-32.9206277],[27.7172311,-32.9205522],[27.7166263,-32.920434],[27.7158954,-32.9202922],[27.715597,-32.9202359],[27.7154206,-32.9202078],[27.7151732,-32.9201689],[27.7148829,-32.9201312],[27.7146555,-32.9201059],[27.7144095,-32.920089],[27.7141828,-32.9200738],[27.713979,-32.9200676],[27.7137101,-32.9200665],[27.713419,-32.9200659],[27.7128759,-32.9200794],[27.712208,-32.9200901],[27.7109179,-32.9201228],[27.7102312,-32.9201509],[27.7093019,-32.9201717],[27.7087037,-32.9201864],[27.7084972,-32.9201909],[27.7082236,-32.9201993],[27.7079621,-32.9202139],[27.7077167,-32.9202303],[27.7073713,-32.9202663],[27.7067672,-32.9203457],[27.7060966,-32.920434],[27.705646,-32.9204926],[27.7053054,-32.9205308],[27.705005,-32.9205567],[27.7043857,-32.9205978],[27.7021917,-32.9207138],[27.7020425,-32.9207217],[27.7012626,-32.9207582],[27.700875,-32.9207802],[27.7000791,-32.9208219],[27.6995695,-32.9208466],[27.6992268,-32.9208658],[27.6984993,-32.9208956],[27.6980386,-32.9209232],[27.6978616,-32.9209311],[27.6976047,-32.9209496],[27.6972641,-32.9209857],[27.6969852,-32.9210239],[27.6963099,-32.9211224],[27.6957306,-32.9212153],[27.695514,-32.9212384],[27.6953208,-32.9212519],[27.6950365,-32.9212812],[27.6948803,-32.9213009],[27.6940548,-32.9214196],[27.6938926,-32.9214399],[27.6935922,-32.9214703],[27.6933555,-32.9214889],[27.693108,-32.9215018],[27.6927231,-32.9215029],[27.6921706,-32.9214759],[27.6917012,-32.9214219],[27.6912881,-32.9213566],[27.6907986,-32.9212508],[27.6903601,-32.9211314],[27.6899081,-32.9209806],[27.6895353,-32.9208252],[27.6891558,-32.920644],[27.6887602,-32.9204301],[27.688445,-32.9202376],[27.6880896,-32.9199989],[27.6877396,-32.9197124],[27.6875659,-32.9195683],[27.6872112,-32.9192368],[27.6869081,-32.918899],[27.686668,-32.9185895],[27.6864628,-32.9183058],[27.6862738,-32.9179793],[27.686094,-32.9176404],[27.6859465,-32.9173061],[27.6858687,-32.9170967],[27.6857722,-32.9167893],[27.6856877,-32.9164685],[27.6855898,-32.9158887],[27.6855549,-32.9155565],[27.6854315,-32.9144893],[27.6853685,-32.9139556],[27.6853511,-32.913798],[27.6852317,-32.9128039],[27.6849662,-32.910426],[27.6848857,-32.9097595],[27.684828,-32.9094161],[27.6847664,-32.9091403],[27.6846859,-32.908852],[27.684596,-32.9085762],[27.6844713,-32.9082868],[27.6842929,-32.9079265],[27.6841602,-32.9076991],[27.6839362,-32.907376],[27.6837833,-32.9071722],[27.6835111,-32.9068603],[27.6831986,-32.9065473],[27.6829183,-32.9063142],[27.6826219,-32.9060845],[27.6823859,-32.9059122],[27.6821901,-32.9057963],[27.681879,-32.9056206],[27.6816161,-32.9054844],[27.6813264,-32.9053572],[27.6808919,-32.9051871],[27.6802696,-32.9049642],[27.6798204,-32.9047998],[27.679414,-32.9046388],[27.6790586,-32.9044755],[27.6788051,-32.9043438],[27.6784793,-32.9041591],[27.6781735,-32.9039632],[27.6776974,-32.9036401],[27.677279,-32.9033507],[27.6769102,-32.9031142],[27.6764904,-32.9028575],[27.6761793,-32.9026942],[27.6758225,-32.9025434],[27.6753236,-32.9023531],[27.674814,-32.9022056],[27.674401,-32.9021211],[27.6736124,-32.9019714],[27.6730974,-32.9018723],[27.6726066,-32.9017642],[27.6721895,-32.9016459],[27.6717737,-32.9014939],[27.671413,-32.9013453],[27.6709838,-32.9011404],[27.6702932,-32.900771],[27.6695891,-32.9003837],[27.6689748,-32.9000594],[27.6683566,-32.8998139],[27.6678483,-32.8996462],[27.6673561,-32.89952],[27.666813,-32.8994255],[27.6662001,-32.8993568],[27.6654907,-32.8993523],[27.6643319,-32.8993703],[27.6626261,-32.8993996],[27.660943,-32.8994255],[27.6598245,-32.8994435],[27.6576868,-32.8994818],[27.6564221,-32.8995065],[27.6557516,-32.899502],[27.6553184,-32.8994818],[27.6547189,-32.8994221],[27.6532316,-32.8992374],[27.6521292,-32.8991169],[27.651106,-32.8989897],[27.6504864,-32.898912],[27.6499338,-32.8988039],[27.6493129,-32.8986519],[27.6485753,-32.8984537],[27.6478404,-32.8982566],[27.6475433,-32.8981851],[27.6472966,-32.8981361],[27.6470746,-32.8980939],[27.6468801,-32.8980675],[27.6466408,-32.8980314],[27.6464765,-32.8980157],[27.6462653,-32.8980005],[27.6460057,-32.8979898],[27.6456906,-32.8979898],[27.6454398,-32.8979965],[27.6435985,-32.898072],[27.6430153,-32.898097],[27.6411328,-32.8981885],[27.6402631,-32.8982319],[27.6397589,-32.8982471],[27.6395148,-32.8982465],[27.6390454,-32.8982274],[27.6388268,-32.8982105],[27.6385398,-32.8981733],[27.6382568,-32.89813],[27.6378907,-32.8980596],[27.6372993,-32.8978929],[27.6368178,-32.8977195],[27.6364464,-32.897554],[27.6360413,-32.8973513],[27.6357825,-32.8971981],[27.6355371,-32.8970394],[27.635232,-32.8968181],[27.6350261,-32.8966503],[27.634886,-32.8965259],[27.6347552,-32.896411],[27.6344575,-32.8961171],[27.6340525,-32.8957072],[27.6336917,-32.8953469],[27.6334168,-32.895098],[27.6331191,-32.8948661],[27.632877,-32.894691],[27.6326577,-32.8945485],[27.6322474,-32.8943075],[27.6318289,-32.894106],[27.6314762,-32.8939584],[27.6311544,-32.8938379],[27.6306689,-32.8936927],[27.6301955,-32.8935879],[27.630005,-32.8935542],[27.6294217,-32.8934607],[27.627115,-32.8931071],[27.6259408,-32.8929207],[27.6252347,-32.8928121],[27.6244918,-32.8927],[27.623738,-32.8925913],[27.6223688,-32.8923774],[27.6216003,-32.8922681],[27.6211658,-32.8922276],[27.6207541,-32.8922107],[27.6203156,-32.892213],[27.6198851,-32.89224],[27.6193848,-32.8923154],[27.6190308,-32.8923796],[27.6186499,-32.8924742],[27.6182945,-32.8925835],[27.6177742,-32.8927715],[27.6173732,-32.8929562],[27.6165846,-32.8933222],[27.6161481,-32.893486],[27.6157759,-32.893606],[27.6155023,-32.8936825],[27.6151912,-32.8937529],[27.6148237,-32.8938267],[27.6145408,-32.893861],[27.6142766,-32.8938875],[27.6139963,-32.8939061],[27.6137374,-32.8939168],[27.613201,-32.8939066],[27.6128148,-32.8938762],[27.6123883,-32.8938098],[27.6120396,-32.8937405],[27.6118049,-32.8936837],[27.6116426,-32.8936454],[27.6114622,-32.8935913],[27.6112825,-32.8935361],[27.6110217,-32.8934506],[27.610205,-32.8931578],[27.6093762,-32.8928549],[27.6086479,-32.8926398],[27.6082778,-32.8925531],[27.6079874,-32.8925035],[27.6078158,-32.8924782],[27.6075623,-32.8924495],[27.6072378,-32.8924264],[27.6066202,-32.892401],[27.6047239,-32.8923504],[27.6021959,-32.8923008],[27.6011404,-32.8922332],[27.6004162,-32.8921488],[27.599735,-32.8920058],[27.5988136,-32.891749],[27.5984153,-32.8916105],[27.5978547,-32.8913571],[27.5968342,-32.8907659],[27.596114,-32.8902603],[27.5947756,-32.8892625],[27.593126,-32.888044],[27.591809,-32.8870755],[27.5908555,-32.8864223],[27.5900817,-32.8860056],[27.5890262,-32.8854774],[27.5880499,-32.8849965],[27.5876261,-32.8847859],[27.5867142,-32.8843411],[27.5865908,-32.8842802],[27.5863874,-32.8841725],[27.5862649,-32.8840965],[27.586046,-32.8839667],[27.5859196,-32.8838956],[27.5857742,-32.8838237],[27.5855353,-32.8837216],[27.5851848,-32.8835449],[27.5822483,-32.882101],[27.5817616,-32.8818623],[27.5819211,-32.8819299],[27.5820327,-32.8819736],[27.5822705,-32.8820638],[27.5824352,-32.8821359],[27.5825494,-32.8821905]]}}]}